{
    "links": {
        "self": "http://www.neowsapp.com/rest/v1/neo/3702968?api_key=iIulBulltgU6a56xZRHN4H3l9WmuAYTsLGpBGhQ2"
    },
    "id": "3702968",
    "neo_reference_id": "3702968",
    "name": "(2014 YV9)",
    "designation": "2014 YV9",
    "nasa_jpl_url": "http://ssd.jpl.nasa.gov/sbdb.cgi?sstr=3702968",
    "absolute_magnitude_h": 26.6,
    "estimated_diameter": {
        "kilometers": {
            "estimated_diameter_min": 0.0127219879,
            "estimated_diameter_max": 0.0284472297
        },
        "meters": {
            "estimated_diameter_min": 12.7219878539,
            "estimated_diameter_max": 28.4472296503
        },
        "miles": {
            "estimated_diameter_min": 0.0079050743,
            "estimated_diameter_max": 0.0176762835
        },
        "feet": {
            "estimated_diameter_min": 41.7388066307,
            "estimated_diameter_max": 93.330808926
        }
    },
    "is_potentially_hazardous_asteroid": false,
    "close_approach_data": [
        {
            "close_approach_date": "2014-12-29",
            "close_approach_date_full": "2014-Dec-29 04:20",
            "epoch_date_close_approach": 1419826800000,
            "relative_velocity": {
                "kilometers_per_second": "9.5023770979",
                "kilometers_per_hour": "34208.5575524274",
                "miles_per_hour": "21255.8673302847"
            },
            "miss_distance": {
                "astronomical": "0.0124752782",
                "lunar": "4.8528832198",
                "kilometers": "1866275.046377434",
                "miles": "1159649.5401552292"
            },
            "orbiting_body": "Earth"
        }
    ],
    "orbital_data": {
        "orbit_id": "5",
        "orbit_determination_date": "2017-04-06 08:36:45",
        "first_observation_date": "2014-12-24",
        "last_observation_date": "2014-12-27",
        "data_arc_in_days": 3,
        "observations_used": 27,
        "orbit_uncertainty": "7",
        "minimum_orbit_intersection": ".0124436",
        "jupiter_tisserand_invariant": "3.965",
        "epoch_osculation": "2459000.5",
        "eccentricity": ".4746765536583313",
        "semi_major_axis": "1.765275710101361",
        "inclination": "7.167622741764744",
        "ascending_node_longitude": "271.7634214075979",
        "orbital_period": "856.6772719503065",
        "perihelion_distance": ".9273407197736834",
        "perihelion_argument": "221.4179465693905",
        "aphelion_distance": "2.603210700429038",
        "perihelion_time": "2458761.499168779830",
        "mean_anomaly": "100.4349036170674",
        "mean_motion": ".4202282607316359",
        "equinox": "J2000",
        "orbit_class": {
            "orbit_class_type": "APO",
            "orbit_class_description": "Near-Earth asteroid orbits which cross the Earth’s orbit similar to that of 1862 Apollo",
            "orbit_class_range": "a (semi-major axis) > 1.0 AU; q (perihelion) < 1.017 AU"
        }
    },
    "is_sentry_object": false
}